NORAD_CAT_ID,OBJECT_NAME,OBJECT_TYPE,EPOCH,MEAN_MOTION,ECCENTRICITY,INCLINATION,RA_OF_ASC_NODE,ARG_OF_PERICENTER,MEAN_ANOMALY,BSTAR,MEAN_MOTION_DOT,MEAN_MOTION_DDOT,TLE_LINE0,TLE_LINE1,TLE_LINE2,SEMIMAJOR_AXIS,PERIOD,APOGEE,PERIGEE,DECAYED
52588.0,STARLINK-3917,PAYLOAD,2024-07-03 17:49:40,15.08838329,9.4e-05,53.2165,355.2407,72.1036,288.0059,4.084e-05,3.62e-06,0.0,0 STARLINK-3917,1 52588U 22051BE  24185.74282541  .00000362  00000-0  40840-4 0  9992,2 52588  53.2165 355.2407 0000940  72.1036 288.0059 15.08838329118908,6917.885,95.438,540.401,539.1,0.0
52588.0,STARLINK-3917,PAYLOAD,2024-07-04 11:18:54,15.08834386,0.0001241,53.2174,351.9703,87.0122,273.1012,5.3847e-05,5.69e-06,0.0,0 STARLINK-3917,1 52588U 22051BE  24186.47146820  .00000569  00000-0  53847-4 0  9992,2 52588  53.2174 351.9703 0001241  87.0122 273.1012 15.08834386119089,6917.898,95.438,540.621,538.904,0.0
52588.0,STARLINK-3917,PAYLOAD,2024-07-04 17:40:27,15.08838096,0.0001209,53.218,350.7803,91.7989,268.3142,0.00012127,1.643e-05,0.0,0 STARLINK-3917,1 52588U 22051BE  24186.73642407  .00001643  00000-0  12127-3 0  9992,2 52588  53.2180 350.7803 0001209  91.7989 268.3142 15.08838096119050,6917.886,95.438,540.588,538.915,0.0
52588.0,STARLINK-3917,PAYLOAD,2024-07-05 14:20:27,15.08840089,0.0001146,53.2172,346.9159,84.1952,275.917,5.7755e-05,6.31e-06,0.0,0 STARLINK-3917,1 52588U 22051BE  24187.59754582  .00000631  00000-0  57755-4 0  9998,2 52588  53.2172 346.9159 0001146  84.1952 275.9170 15.08840089119182,6917.88,95.438,540.538,538.952,0.0
52588.0,STARLINK-3917,PAYLOAD,2024-07-05 15:55:51,15.08840907,0.0001149,53.2182,346.6188,86.4317,273.6807,5.941e-05,6.58e-06,0.0,0 STARLINK-3917,1 52588U 22051BE  24187.66378534  .00000658  00000-0  59410-4 0  9994,2 52588  53.2182 346.6188 0001149  86.4317 273.6807 15.08840907119265,6917.878,95.437,540.537,538.948,0.0
52588.0,STARLINK-3917,PAYLOAD,2024-07-06 14:11:15,15.08831887,0.0001408,53.2185,342.4544,87.167,272.9483,-4.0198e-05,-9.27e-06,0.0,0 STARLINK-3917,1 52588U 22051BE  24188.59115487 -.00000927  00000-0 -40198-4 0  9997,2 52588  53.2185 342.4544 0001408  87.1670 272.9483 15.08831887119333,6917.905,95.438,540.744,538.796,0.0
52588.0,STARLINK-3917,PAYLOAD,2024-07-06 17:22:01,15.08828862,0.0001153,53.2197,341.8633,90.7394,269.373,9.8478e-05,1.279e-05,0.0,0 STARLINK-3917,1 52588U 22051BE  24188.72363350  .00001279  00000-0  98478-4 0  9999,2 52588  53.2197 341.8633 0001153  90.7394 269.3730 15.08828862119422,6917.914,95.438,540.577,538.982,0.0
52588.0,STARLINK-3917,PAYLOAD,2024-07-07 14:02:02,15.08840079,0.0001236,53.2183,337.9969,94.5296,265.5837,3.8333e-05,3.22e-06,0.0,0 STARLINK-3917,1 52588U 22051BE  24189.58475002  .00000322  00000-0  38333-4 0  9994,2 52588  53.2183 337.9969 0001236  94.5296 265.5837 15.08840079119486,6917.88,95.438,540.6,538.89,0.0
52588.0,STARLINK-3917,PAYLOAD,2024-07-07 20:23:34,15.0884826,0.0001175,53.2176,336.8034,83.7711,276.3415,9.7591e-05,1.266e-05,0.0,0 STARLINK-3917,1 52588U 22051BE  24189.84970315  .00001266  00000-0  97591-4 0  9999,2 52588  53.2176 336.8034 0001175  83.7711 276.3415 15.08848260119597,6917.855,95.437,540.533,538.907,0.0
52588.0,STARLINK-3917,PAYLOAD,2024-07-08 13:52:50,15.08830685,0.0001657,53.2205,333.5295,66.3261,293.7905,0.00010168,1.33e-05,0.0,0 STARLINK-3917,1 52588U 22051BE  24190.57835654  .00001330  00000-0  10168-3 0  9993,2 52588  53.2205 333.5295 0001657  66.3261 293.7905 15.08830685119639,6917.909,95.438,540.92,538.628,0.0
52588.0,STARLINK-3917,PAYLOAD,2024-07-08 18:38:59,15.08838111,0.0001561,53.2176,332.6374,76.3773,283.7393,7.9979e-05,9.85e-06,0.0,0 STARLINK-3917,1 52588U 22051BE  24190.77707214  .00000985  00000-0  79979-4 0  9996,2 52588  53.2176 332.6374 0001561  76.3773 283.7393 15.08838111119730,6917.886,95.438,540.831,538.671,0.0
52588.0,STARLINK-3917,PAYLOAD,2024-07-09 15:18:59,15.08838753,0.0001053,53.2156,328.775,84.4257,275.6855,6.197e-05,6.99e-06,0.0,0 STARLINK-3917,1 52588U 22051BE  24191.63819157  .00000699  00000-0  61970-4 0  9996,2 52588  53.2156 328.7750 0001053  84.4257 275.6855 15.08838753119796,6917.884,95.438,540.478,539.021,0.0
52588.0,STARLINK-3917,PAYLOAD,2024-07-09 16:54:22,15.08849224,0.0001087,53.2176,328.4787,88.8828,271.2289,-4.6847e-06,-3.62e-06,0.0,0 STARLINK-3917,1 52588U 22051BE  24191.70442759 -.00000362  00000-0 -46847-5 0  9990,2 52588  53.2176 328.4787 0001087  88.8828 271.2289 15.08849224119804,6917.852,95.437,540.469,538.965,0.0
52588.0,STARLINK-3917,PAYLOAD,2024-07-10 02:26:41,15.08848322,0.0001173,53.2176,326.6948,77.0772,283.0351,-2.772e-05,-7.29e-06,0.0,0 STARLINK-3917,1 52588U 22051BE  24192.10186748 -.00000729  00000-0 -27720-4 0  9993,2 52588  53.2176 326.6948 0001173  77.0772 283.0351 15.08848322119930,6917.855,95.437,540.531,538.908,0.0
52588.0,STARLINK-3917,PAYLOAD,2024-07-10 08:48:14,15.08837011,0.0001412,53.2182,325.505,80.0319,280.0833,3.8221e-05,3.2e-06,0.0,0 STARLINK-3917,1 52588U 22051BE  24192.36683394  .00000320  00000-0  38221-4 0  9993,2 52588  53.2182 325.5050 0001412  80.0319 280.0833 15.08837011119975,6917.89,95.438,540.731,538.778,0.0
52588.0,STARLINK-3917,PAYLOAD,2024-07-10 15:09:46,15.08839013,0.0001364,53.2177,324.3173,76.3828,283.7316,6.1463e-05,6.9e-06,0.0,0 STARLINK-3917,1 52588U 22051BE  24192.63179205  .00000690  00000-0  61463-4 0  9998,2 52588  53.2177 324.3173 0001364  76.3828 283.7316 15.08839013119948,6917.883,95.438,540.692,538.805,0.0
52588.0,STARLINK-3917,PAYLOAD,2024-07-11 13:25:10,15.08839228,0.000124,53.2179,320.1534,79.4427,280.6704,4.1767e-05,3.77e-06,0.0,0 STARLINK-3917,1 52588U 22051BE  24193.55915232  .00000377  00000-0  41767-4 0  9995,2 52588  53.2179 320.1534 0001240  79.4427 280.6704 15.08839228120089,6917.883,95.438,540.606,538.89,0.0
52588.0,STARLINK-3917,PAYLOAD,2024-07-11 15:00:33,15.08844315,0.0001127,53.2172,319.8542,85.5105,274.6016,4.2362e-05,3.87e-06,0.0,0 STARLINK-3917,1 52588U 22051BE  24193.62538866  .00000387  00000-0  42362-4 0  9990,2 52588  53.2172 319.8542 0001127  85.5105 274.6016 15.08844315120162,6917.867,95.437,540.512,538.953,0.0
52588.0,STARLINK-3917,PAYLOAD,2024-07-12 13:15:58,15.088194,0.0001188,53.218,315.6918,100.1145,259.9982,0.00034373,5.184e-05,0.0,0 STARLINK-3917,1 52588U 22051BE  24194.55275769  .00005184  00000-0  34373-3 0  9995,2 52588  53.2180 315.6918 0001188 100.1145 259.9982 15.08819400120308,6917.943,95.439,540.63,538.987,0.0
52588.0,STARLINK-3917,PAYLOAD,2024-07-12 18:02:06,15.08844269,9.18e-05,53.2182,314.7957,95.2097,264.9,7.6813e-05,9.35e-06,0.0,0 STARLINK-3917,1 52588U 22051BE  24194.75146750  .00000935  00000-0  76813-4 0  9999,2 52588  53.2182 314.7957 0000918  95.2097 264.9000 15.08844269120334,6917.867,95.437,540.367,539.097,0.0
52588.0,STARLINK-3917,PAYLOAD,2024-07-13 11:31:21,15.08840957,0.0001331,53.2173,311.5238,110.5471,249.5664,-2.0847e-05,-6.2e-06,0.0,0 STARLINK-3917,1 52588U 22051BE  24195.48011254 -.00000620  00000-0 -20847-4 0  9999,2 52588  53.2173 311.5238 0001331 110.5471 249.5664 15.08840957120445,6917.877,95.437,540.663,538.822,0.0
52588.0,STARLINK-3917,PAYLOAD,2024-07-13 14:42:07,15.08841299,0.0001347,53.2182,310.9339,103.4972,256.617,4.1016e-05,3.65e-06,0.0,0 STARLINK-3917,1 52588U 22051BE  24195.61259076  .00000365  00000-0  41016-4 0  9995,2 52588  53.2182 310.9339 0001347 103.4972 256.6170 15.08841299120399,6917.876,95.437,540.673,538.81,0.0
52588.0,STARLINK-3917,PAYLOAD,2024-07-14 12:57:32,15.08841079,0.0001419,53.2189,306.7737,96.2242,263.8912,-5.1992e-06,-3.71e-06,0.0,0 STARLINK-3917,1 52588U 22051BE  24196.53995420 -.00000371  00000-0 -51992-5 0  9991,2 52588  53.2189 306.7737 0001419  96.2242 263.8912 15.08841079120604,6917.877,95.437,540.724,538.76,0.0
52588.0,STARLINK-3917,PAYLOAD,2024-07-14 14:32:55,15.08843057,0.0001489,53.2193,306.4788,106.5571,253.5585,1.4738e-05,-5.3e-07,0.0,0 STARLINK-3917,1 52588U 22051BE  24196.60619231 -.00000053  00000-0  14738-4 0  9994,2 52588  53.2193 306.4788 0001489 106.5571 253.5585 15.08843057120542,6917.871,95.437,540.766,538.706,0.0
52588.0,STARLINK-3917,PAYLOAD,2024-07-15 14:23:41,15.0885011,0.0001137,53.2169,302.0134,101.0204,259.0916,7.8813e-05,9.67e-06,0.0,0 STARLINK-3917,1 52588U 22051BE  24197.59978681  .00000967  00000-0  78813-4 0  9997,2 52588  53.2169 302.0134 0001137 101.0204 259.0916 15.08850110120698,6917.849,95.437,540.501,538.928,0.0
52588.0,STARLINK-3917,PAYLOAD,2024-07-15 23:56:00,15.08845484,0.0001294,53.2177,300.2263,89.6767,270.4373,-3.3132e-05,-8.15e-06,0.0,0 STARLINK-3917,1 52588U 22051BE  24197.99723215 -.00000815  00000-0 -33132-4 0  9991,2 52588  53.2177 300.2263 0001294  89.6767 270.4373 15.08845484120826,6917.864,95.437,540.624,538.833,0.0
52588.0,STARLINK-3917,PAYLOAD,2024-07-16 14:14:28,15.08855298,0.0001145,53.2173,297.5538,102.0168,258.0952,0.00014593,2.036e-05,0.0,0 STARLINK-3917,1 52588U 22051BE  24198.59338105  .00002036  00000-0  14593-3 0  9992,2 52588  53.2173 297.5538 0001145 102.0168 258.0952 15.08855298120846,6917.834,95.437,540.491,538.907,0.0
52588.0,STARLINK-3917,PAYLOAD,2024-07-17 06:08:21,15.08827275,0.0001507,53.218,294.577,94.4631,265.6533,-2.0856e-05,-6.2e-06,0.0,0 STARLINK-3917,1 52588U 22051BE  24199.25580843 -.00000620  00000-0 -20856-4 0  9993,2 52588  53.2180 294.5770 0001507  94.4631 265.6533 15.08827275121013,6917.919,95.438,540.827,538.742,0.0
52588.0,STARLINK-3917,PAYLOAD,2024-07-17 14:05:17,15.08838609,0.0001272,53.2174,293.0895,82.2857,277.828,2.9997e-05,1.9e-06,0.0,0 STARLINK-3917,1 52588U 22051BE  24199.58700260  .00000190  00000-0  29997-4 0  9991,2 52588  53.2174 293.0895 0001272  82.2857 277.8280 15.08838609120995,6917.885,95.438,540.63,538.87,0.0
52588.0,STARLINK-3917,PAYLOAD,2024-07-18 12:20:39,15.08859883,0.0001156,53.2172,288.93,83.6467,276.4657,7.0381e-05,8.33e-06,0.0,0 STARLINK-3917,1 52588U 22051BE  24200.51434795  .00000833  00000-0  70381-4 0  9991,2 52588  53.2172 288.9300 0001156  83.6467 276.4657 15.08859883121205,6917.82,95.436,540.484,538.885,0.0
